[{"OBJECT_NAME":"HEAD-3A","OBJECT_ID":"2023-121A","EPOCH":"2026-03-09T23:13:19.514208","MEAN_MOTION":14.60504198,"ECCENTRICITY":0.00053162,"INCLINATION":45.0013,"RA_OF_ASC_NODE":79.5453,"ARG_OF_PERICENTER":132.961,"MEAN_ANOMALY":227.1693,"EPHEMERIS_TYPE":0,"CLASSIFICATION_TYPE":"U","NORAD_CAT_ID":57626,"ELEMENT_SET_NO":999,"REV_AT_EPOCH":13707,"BSTAR":0.00022333117,"MEAN_MOTION_DOT":9.35e-6,"MEAN_MOTION_DDOT":0},{"OBJECT_NAME":"KSLV-II R\/B","OBJECT_ID":"2022-065C","EPOCH":"2026-03-09T22:43:36.978528","MEAN_MOTION":14.65267417,"ECCENTRICITY":0.00174918,"INCLINATION":98.2507,"RA_OF_ASC_NODE":228.2968,"ARG_OF_PERICENTER":141.6015,"MEAN_ANOMALY":218.6436,"EPHEMERIS_TYPE":0,"CLASSIFICATION_TYPE":"U","NORAD_CAT_ID":52896,"ELEMENT_SET_NO":999,"REV_AT_EPOCH":19861,"BSTAR":0.00015528786,"MEAN_MOTION_DOT":7.89e-6,"MEAN_MOTION_DDOT":0}]
